{
  "norad_id": 68770,
  "name": "STARLINK-37417",
  "history": [
    {
      "epoch": "2026-04-27T13:32:35.530368Z",
      "apogee_km": 291.14379060572173,
      "perigee_km": 285.6832190872019,
      "latitude_deg": 1.561976022635826e-05,
      "longitude_deg": 94.28555319925579,
      "height_km": 288.8856594817299,
      "semi_major_axis_km": 6666.550504846461,
      "eccentricity": 0.00040955,
      "inclination_deg": 97.2789,
      "raan_deg": 152.9859,
      "arg_perigee_deg": 355.7033,
      "mean_anomaly_deg": 4.4207,
      "mean_motion_rev_day": 15.94964428
    },
    {
      "epoch": "2026-04-29T20:00:01.999008Z",
      "apogee_km": 315.37566623729526,
      "perigee_km": 313.711865798864,
      "latitude_deg": 18.95184189479024,
      "longitude_deg": -4.87851396246582,
      "height_km": 316.7840167001134,
      "semi_major_axis_km": 6692.680766018079,
      "eccentricity": 0.0001243,
      "inclination_deg": 97.2794,
      "raan_deg": 155.4184,
      "arg_perigee_deg": 78.5543,
      "mean_anomaly_deg": 300.5725,
      "mean_motion_rev_day": 15.85632712
    }
  ]
}